SL-4 R/B                
1 39679U 14021B   26017.95809894  .00009547  00000+0  22547-3 0  9997
2 39679  51.6061 224.4585 0099289 277.7587  81.2132 15.37571848648469
ALOS-2                  
1 39766U 14029A   26017.99421616 -.00000021  00000+0  40369-5 0  9991
2 39766  97.9209 117.3215 0001324  95.4629 264.6733 14.79455081629376
YAOGAN-29               
1 41038U 15069A   26017.98688913  .00000368  00000+0  52020-4 0  9994
2 41038  98.0195  46.2710 0002479 120.8307 239.3150 14.82927402548361
ASTRO-H (HITOMI)        
1 41337U 16012A   26017.99302606  .00002418  00000+0  14094-3 0  9994
2 41337  31.0007 323.6108 0009759 184.5934 175.4615 15.09607972544567
HXMT (HUIYAN)           
1 42758U 17034A   26017.95080509  .00005322  00000+0  27452-3 0  9997
2 42758  43.0152 298.6145 0033484 273.6997  86.0022 15.16736824474830
CZ-2C R/B               
1 43521U 18054D   26017.84352307  .00167821  00000+0  70153-3 0  9994
2 43521  35.1334 294.4113 0011129 165.9323 194.1725 15.84064355420762
SAOCOM 1A               
1 43641U 18076A   26017.99257742  .00000142  00000+0  24339-4 0  9992
2 43641  97.8849 206.8878 0001486  85.6315 274.5067 14.82149849393850
H-2A R/B                
1 43682U 18084L   26017.53771526  .00018866  00000+0  48702-3 0  9998
2 43682  98.8762 224.0830 0025915 199.9082 160.1150 15.38883116397900
SAOCOM 1B               
1 46265U 20059A   26017.95626539  .00001155  00000+0  15157-3 0  9993
2 46265  97.8847 205.9511 0001402  87.7398 272.3976 14.82154613291238
CSS (TIANHE)            
1 48274U 21035A   26017.75917748  .00020114  00000+0  23896-3 0  9998
2 48274  41.4657 157.7848 0011173 305.0077  54.9713 15.60612084269659
COSMOS 2550             
1 48865U 21056A   26017.98146025 -.00000194  00000+0 -82010-7 0  9999
2 48865  67.1433 194.3126 0008328 269.6316  90.3884 15.33827881255681
CZ-2C R/B               
1 52794U 22058K   26017.91942986  .00023168  00000+0  38911-3 0  9992
2 52794  50.1875 218.7477 0042843 347.1262  12.8609 15.50594554202246
