CCSDS_OMM_VERS = 2.0
CREATION_DATE  = 
ORIGINATOR     = 

OBJECT_NAME    = SL-4 R/B
OBJECT_ID      = 2014-021B
CENTER_NAME    = EARTH
REF_FRAME      = TEME
TIME_SYSTEM    = UTC
MEAN_ELEMENT_THEORY = SGP/SGP4

EPOCH          = 2026-01-17T22:59:39.748416
MEAN_MOTION    = 15.37571848
ECCENTRICITY   = .00992891
INCLINATION    = 51.6061
RA_OF_ASC_NODE = 224.4585
ARG_OF_PERICENTER = 277.7587
MEAN_ANOMALY   = 81.2132

EPHEMERIS_TYPE = 0
CLASSIFICATION_TYPE = U
NORAD_CAT_ID   = 39679
ELEMENT_SET_NO = 999
REV_AT_EPOCH   = 64846
BSTAR          = .2254666E-3
MEAN_MOTION_DOT = .9547E-4
MEAN_MOTION_DDOT = 0

CCSDS_OMM_VERS = 2.0
CREATION_DATE  = 
ORIGINATOR     = 

OBJECT_NAME    = ALOS-2
OBJECT_ID      = 2014-029A
CENTER_NAME    = EARTH
REF_FRAME      = TEME
TIME_SYSTEM    = UTC
MEAN_ELEMENT_THEORY = SGP/SGP4

EPOCH          = 2026-01-17T23:51:40.276224
MEAN_MOTION    = 14.79455081
ECCENTRICITY   = .00013244
INCLINATION    = 97.9209
RA_OF_ASC_NODE = 117.3215
ARG_OF_PERICENTER = 95.4629
MEAN_ANOMALY   = 264.6733

EPHEMERIS_TYPE = 0
CLASSIFICATION_TYPE = U
NORAD_CAT_ID   = 39766
ELEMENT_SET_NO = 999
REV_AT_EPOCH   = 62937
BSTAR          = .4036891E-5
MEAN_MOTION_DOT = -.21E-6
MEAN_MOTION_DDOT = 0

CCSDS_OMM_VERS = 2.0
CREATION_DATE  = 
ORIGINATOR     = 

OBJECT_NAME    = YAOGAN-29
OBJECT_ID      = 2015-069A
CENTER_NAME    = EARTH
REF_FRAME      = TEME
TIME_SYSTEM    = UTC
MEAN_ELEMENT_THEORY = SGP/SGP4

EPOCH          = 2026-01-17T23:41:07.220832
MEAN_MOTION    = 14.82927402
ECCENTRICITY   = .00024798
INCLINATION    = 98.0195
RA_OF_ASC_NODE = 46.2710
ARG_OF_PERICENTER = 120.8307
MEAN_ANOMALY   = 239.3150

EPHEMERIS_TYPE = 0
CLASSIFICATION_TYPE = U
NORAD_CAT_ID   = 41038
ELEMENT_SET_NO = 999
REV_AT_EPOCH   = 54836
BSTAR          = .52019634E-4
MEAN_MOTION_DOT = .368E-5
MEAN_MOTION_DDOT = 0

CCSDS_OMM_VERS = 2.0
CREATION_DATE  = 
ORIGINATOR     = 

OBJECT_NAME    = ASTRO-H (HITOMI)
OBJECT_ID      = 2016-012A
CENTER_NAME    = EARTH
REF_FRAME      = TEME
TIME_SYSTEM    = UTC
MEAN_ELEMENT_THEORY = SGP/SGP4

EPOCH          = 2026-01-17T23:49:57.451584
MEAN_MOTION    = 15.09607972
ECCENTRICITY   = .00097595
INCLINATION    = 31.0007
RA_OF_ASC_NODE = 323.6108
ARG_OF_PERICENTER = 184.5934
MEAN_ANOMALY   = 175.4615

EPHEMERIS_TYPE = 0
CLASSIFICATION_TYPE = U
NORAD_CAT_ID   = 41337
ELEMENT_SET_NO = 999
REV_AT_EPOCH   = 54456
BSTAR          = .14094119E-3
MEAN_MOTION_DOT = .2418E-4
MEAN_MOTION_DDOT = 0

CCSDS_OMM_VERS = 2.0
CREATION_DATE  = 
ORIGINATOR     = 

OBJECT_NAME    = HXMT (HUIYAN)
OBJECT_ID      = 2017-034A
CENTER_NAME    = EARTH
REF_FRAME      = TEME
TIME_SYSTEM    = UTC
MEAN_ELEMENT_THEORY = SGP/SGP4

EPOCH          = 2026-01-17T22:49:09.559776
MEAN_MOTION    = 15.16736824
ECCENTRICITY   = .00334842
INCLINATION    = 43.0152
RA_OF_ASC_NODE = 298.6145
ARG_OF_PERICENTER = 273.6997
MEAN_ANOMALY   = 86.0022

EPHEMERIS_TYPE = 0
CLASSIFICATION_TYPE = U
NORAD_CAT_ID   = 42758
ELEMENT_SET_NO = 999
REV_AT_EPOCH   = 47483
BSTAR          = .27452032E-3
MEAN_MOTION_DOT = .5322E-4
MEAN_MOTION_DDOT = 0

CCSDS_OMM_VERS = 2.0
CREATION_DATE  = 
ORIGINATOR     = 

OBJECT_NAME    = CZ-2C R/B
OBJECT_ID      = 2018-054D
CENTER_NAME    = EARTH
REF_FRAME      = TEME
TIME_SYSTEM    = UTC
MEAN_ELEMENT_THEORY = SGP/SGP4

EPOCH          = 2026-01-17T20:14:40.393248
MEAN_MOTION    = 15.84064355
ECCENTRICITY   = .00111297
INCLINATION    = 35.1334
RA_OF_ASC_NODE = 294.4113
ARG_OF_PERICENTER = 165.9323
MEAN_ANOMALY   = 194.1725

EPHEMERIS_TYPE = 0
CLASSIFICATION_TYPE = U
NORAD_CAT_ID   = 43521
ELEMENT_SET_NO = 999
REV_AT_EPOCH   = 42076
BSTAR          = .70152722E-3
MEAN_MOTION_DOT = .167821E-2
MEAN_MOTION_DDOT = 0

CCSDS_OMM_VERS = 2.0
CREATION_DATE  = 
ORIGINATOR     = 

OBJECT_NAME    = SAOCOM 1A
OBJECT_ID      = 2018-076A
CENTER_NAME    = EARTH
REF_FRAME      = TEME
TIME_SYSTEM    = UTC
MEAN_ELEMENT_THEORY = SGP/SGP4

EPOCH          = 2026-01-17T23:49:18.689088
MEAN_MOTION    = 14.82149849
ECCENTRICITY   = .00014862
INCLINATION    = 97.8849
RA_OF_ASC_NODE = 206.8878
ARG_OF_PERICENTER = 85.6315
MEAN_ANOMALY   = 274.5067

EPHEMERIS_TYPE = 0
CLASSIFICATION_TYPE = U
NORAD_CAT_ID   = 43641
ELEMENT_SET_NO = 999
REV_AT_EPOCH   = 39385
BSTAR          = .24339109E-4
MEAN_MOTION_DOT = .142E-5
MEAN_MOTION_DDOT = 0

CCSDS_OMM_VERS = 2.0
CREATION_DATE  = 
ORIGINATOR     = 

OBJECT_NAME    = H-2A R/B
OBJECT_ID      = 2018-084L
CENTER_NAME    = EARTH
REF_FRAME      = TEME
TIME_SYSTEM    = UTC
MEAN_ELEMENT_THEORY = SGP/SGP4

EPOCH          = 2026-01-17T12:54:18.598464
MEAN_MOTION    = 15.38883116
ECCENTRICITY   = .00259156
INCLINATION    = 98.8762
RA_OF_ASC_NODE = 224.0830
ARG_OF_PERICENTER = 199.9082
MEAN_ANOMALY   = 160.1150

EPHEMERIS_TYPE = 0
CLASSIFICATION_TYPE = U
NORAD_CAT_ID   = 43682
ELEMENT_SET_NO = 999
REV_AT_EPOCH   = 39790
BSTAR          = .48702149E-3
MEAN_MOTION_DOT = .18866E-3
MEAN_MOTION_DDOT = 0

CCSDS_OMM_VERS = 2.0
CREATION_DATE  = 
ORIGINATOR     = 

OBJECT_NAME    = SAOCOM 1B
OBJECT_ID      = 2020-059A
CENTER_NAME    = EARTH
REF_FRAME      = TEME
TIME_SYSTEM    = UTC
MEAN_ELEMENT_THEORY = SGP/SGP4

EPOCH          = 2026-01-17T22:57:01.329696
MEAN_MOTION    = 14.82154613
ECCENTRICITY   = .00014025
INCLINATION    = 97.8847
RA_OF_ASC_NODE = 205.9511
ARG_OF_PERICENTER = 87.7398
MEAN_ANOMALY   = 272.3976

EPHEMERIS_TYPE = 0
CLASSIFICATION_TYPE = U
NORAD_CAT_ID   = 46265
ELEMENT_SET_NO = 999
REV_AT_EPOCH   = 29123
BSTAR          = .15156687E-3
MEAN_MOTION_DOT = .1155E-4
MEAN_MOTION_DDOT = 0

CCSDS_OMM_VERS = 2.0
CREATION_DATE  = 
ORIGINATOR     = 

OBJECT_NAME    = CSS (TIANHE)
OBJECT_ID      = 2021-035A
CENTER_NAME    = EARTH
REF_FRAME      = TEME
TIME_SYSTEM    = UTC
MEAN_ELEMENT_THEORY = SGP/SGP4

EPOCH          = 2026-01-17T18:13:12.934272
MEAN_MOTION    = 15.60612084
ECCENTRICITY   = .00111739
INCLINATION    = 41.4657
RA_OF_ASC_NODE = 157.7848
ARG_OF_PERICENTER = 305.0077
MEAN_ANOMALY   = 54.9713

EPHEMERIS_TYPE = 0
CLASSIFICATION_TYPE = U
NORAD_CAT_ID   = 48274
ELEMENT_SET_NO = 999
REV_AT_EPOCH   = 26965
BSTAR          = .23895988E-3
MEAN_MOTION_DOT = .20114E-3
MEAN_MOTION_DDOT = 0

CCSDS_OMM_VERS = 2.0
CREATION_DATE  = 
ORIGINATOR     = 

OBJECT_NAME    = COSMOS 2550
OBJECT_ID      = 2021-056A
CENTER_NAME    = EARTH
REF_FRAME      = TEME
TIME_SYSTEM    = UTC
MEAN_ELEMENT_THEORY = SGP/SGP4

EPOCH          = 2026-01-17T23:33:18.165600
MEAN_MOTION    = 15.33827881
ECCENTRICITY   = .00083283
INCLINATION    = 67.1433
RA_OF_ASC_NODE = 194.3126
ARG_OF_PERICENTER = 269.6316
MEAN_ANOMALY   = 90.3884

EPHEMERIS_TYPE = 0
CLASSIFICATION_TYPE = U
NORAD_CAT_ID   = 48865
ELEMENT_SET_NO = 999
REV_AT_EPOCH   = 25568
BSTAR          = -.8201E-7
MEAN_MOTION_DOT = -.194E-5
MEAN_MOTION_DDOT = 0

CCSDS_OMM_VERS = 2.0
CREATION_DATE  = 
ORIGINATOR     = 

OBJECT_NAME    = CZ-2C R/B
OBJECT_ID      = 2022-058K
CENTER_NAME    = EARTH
REF_FRAME      = TEME
TIME_SYSTEM    = UTC
MEAN_ELEMENT_THEORY = SGP/SGP4

EPOCH          = 2026-01-17T22:03:58.739904
MEAN_MOTION    = 15.50594554
ECCENTRICITY   = .00428438
INCLINATION    = 50.1875
RA_OF_ASC_NODE = 218.7477
ARG_OF_PERICENTER = 347.1262
MEAN_ANOMALY   = 12.8609

EPHEMERIS_TYPE = 0
CLASSIFICATION_TYPE = U
NORAD_CAT_ID   = 52794
ELEMENT_SET_NO = 999
REV_AT_EPOCH   = 20224
BSTAR          = .3891075E-3
MEAN_MOTION_DOT = .23168E-3
MEAN_MOTION_DDOT = 0

